POLYITAN-1              
1 40042U 14033AJ  26204.32331617  .00018684  00000+0  56162-3 0  9990
2 40042  98.0940 234.0351 0007065  39.5011 320.6744 15.34444208659132
TIGRISAT                
1 40043U 14033AK  26204.83308801  .00001439  00000+0  17067-3 0  9997
2 40043  97.7875 354.0167 0047998 315.5336  44.2030 14.85268929651060
AEROCUBE 6A             
1 40045U 14033AM  26204.02093090  .00006125  00000+0  51139-3 0  9996
2 40045  97.7275  10.6016 0036112 253.9554 105.7690 14.98410696651987
AEROCUBE 6B             
1 40046U 14033AN  26204.72232059  .00005717  00000+0  45919-3 0  9999
2 40046  97.7204  11.1565 0038277 239.9938 119.7485 14.99862817652232
CANX-4                  
1 40055U 14034C   26204.22314959  .00000730  00000+0  10082-3 0  9998
2 40055  98.3072  80.8513 0011389 253.9790 106.0167 14.81321100649862
CANX-5                  
1 40056U 14034D   26204.49135053  .00000732  00000+0  10106-3 0  9993
2 40056  98.3074  81.1750 0011405 253.2971 106.6989 14.81338876640716
UKUBE-1                 
1 40074U 14037F   26203.00273654  .00008356  00000+0  46405-3 0  9993
2 40074  98.4254 209.9476 0003134  76.9955 283.1624 15.14023415653824
BRITE-PL2 (HEWELIUSZ)   
1 40119U 14049B   26204.72502102  .00001847  00000+0  17545-3 0  9990
2 40119  97.9123 317.0145 0013547 354.4816   5.6253 14.94707430646905
AEROCUBE 5C             
1 40965U 15058B   26204.84679875  .00003831  00000+0  33569-3 0  9994
2 40965  64.7666 148.5283 0132997  49.1413 312.1135 14.91623225371120
AEROCUBE 7              
1 40966U 15058C   26204.80431750  .00005054  00000+0  39978-3 0  9998
2 40966  64.7621 130.1008 0122671  47.4667 313.6726 14.95980206371439
FOX-1A (AO-85)          
1 40967U 15058D   26204.30272102  .00003792  00000+0  33669-3 0  9996
2 40967  64.7741 166.7324 0133071  42.7370 318.3997 14.91129767118955
SINOD-D 1               
1 40968U 15058E   26204.84479162  .00005719  00000+0  44923-3 0  9997
2 40968  64.7745 144.0931 0121759  38.8855 322.0939 14.96158782122145
SNAP-3 ALICE            
1 40970U 15058G   26204.79558344  .00158878  00000+0  13006-2 0  9996
2 40970  64.7486 336.5005 0026840 343.4867  16.5406 15.69320599122617
LMRST-SAT               
1 40971U 15058H   26204.87108400  .00003625  00000+0  32459-3 0  9993
2 40971  64.7747 161.3741 0134601  44.5271 316.6563 14.90747210119027
SNAP-3 EDDIE            
1 40972U 15058J   26204.75512876  .00195499  00000+0  14882-2 0  9997
2 40972  64.7404 327.0778 0028099 345.9806  14.0562 15.70902943124753
PROPCUBE 3              
1 40973U 15058K   26204.81596959  .00004571  00000+0  37450-3 0  9996
2 40973  64.7681 138.0744 0126432  45.7238 315.4164 14.94474581120274
BISONSAT                
1 40974U 15058L   26204.29930862  .00013145  00000+0  61313-3 0  9996
2 40974  64.7589  56.8012 0082803  32.2910 328.3244 15.17090256121090
SNAP-3 JIMI             
1 40975U 15058M   26204.73073803  .00007118  00000+0  47952-3 0  9995
2 40975  64.7649 104.1151 0108412  41.0283 319.8925 15.02703071119712
PROPCUBE 1 (FLORA)      
1 40976U 15058N   26204.38974980  .00003064  00000+0  28810-3 0  9991
2 40976  64.7730 183.0206 0133113  46.9669 314.2500 14.89362825121655
SINOD-D 3               
1 40977U 15058P   26204.85353065  .00004998  00000+0  41535-3 0  9995
2 40977  64.7713 161.3014 0121717  43.8304 317.2390 14.94234064120234
RAVAN                   
1 41849U 16067B   26204.23898870  .00064563  00000+0  85193-3 0  9997
2 41849  97.9829  98.0692 0003416 182.5920 177.5317 15.58180668533300
CELTEE 1                
1 41850U 16067C   26204.35178373  .00004738  00000+0  22359-3 0  9994
2 41850  98.0633  73.3853 0002518  99.9194 260.2324 15.19998381531377
OPTICUBE 04             
1 41851U 16067D   26204.13447358  .00001954  00000+0  12510-3 0  9998
2 41851  98.0668  58.2908 0015524   1.6575 358.4701 15.09795676530596
AEROCUBE 8D             
1 41852U 16067E   26204.44932956  .00007246  00000+0  29485-3 0  9995
2 41852  98.0639  77.3820 0004001  35.6935 324.4568 15.24855276531590
AEROCUBE 8C             
1 41853U 16067F   26203.87781190  .00007654  00000+0  30896-3 0  9995
2 41853  98.0510  73.9494 0003716 309.3108  50.7798 15.25100953531504
CORVUS BC2              
1 42846U 17042X   26204.39660163  .00003073  00000+0  21181-3 0  9994
2 42846  97.4099   4.3505 0012617 354.6231   5.4859 15.06490552492511
CORVUS BC1              
1 42847U 17042Y   26204.38723426  .00003152  00000+0  21627-3 0  9999
2 42847  97.4135   5.1792 0010836 330.8605  29.2016 15.06656762492541
MAKERSAT 0              
1 43016U 17073D   26204.08832403  .00023835  00000+0  62103-3 0  9999
2 43016  97.4573  86.9049 0105725 144.3345 216.5022 15.33243210471960
SIRION PATHFINDER-2     
1 43759U 18099B   26204.11938092  .00003743  00000+0  20479-3 0  9993
2 43759  97.4236 252.3249 0009296 164.7022 195.4493 15.14823429418069
CORVUS BC4              
1 43767U 18099K   26204.57188596  .00003788  00000+0  21961-3 0  9994
2 43767  97.4051 246.4889 0006971 225.6264 134.4396 15.12750007417905
