OBJECT_NAME,OBJECT_ID,EPOCH,MEAN_MOTION,ECCENTRICITY,INCLINATION,RA_OF_ASC_NODE,ARG_OF_PERICENTER,MEAN_ANOMALY,EPHEMERIS_TYPE,CLASSIFICATION_TYPE,NORAD_CAT_ID,ELEMENT_SET_NO,REV_AT_EPOCH,BSTAR,MEAN_MOTION_DOT,MEAN_MOTION_DDOT
POLYITAN-1,2014-033AJ,2026-07-23T07:45:34.517088,15.34444208,.0007065,98.0940,234.0351,39.5011,320.6744,0,U,40042,999,65913,.56162E-3,.18684E-3,0
TIGRISAT,2014-033AK,2026-07-23T19:59:38.804064,14.85268929,.0047998,97.7875,354.0167,315.5336,44.2030,0,U,40043,999,65106,.17067E-3,.1439E-4,0
AEROCUBE 6A,2014-033AM,2026-07-23T00:30:08.429760,14.98410696,.00361128,97.7275,10.6016,253.9554,105.7690,0,U,40045,999,65198,.51139375E-3,.6125E-4,0
AEROCUBE 6B,2014-033AN,2026-07-23T17:20:08.498976,14.99862817,.0038277,97.7204,11.1565,239.9938,119.7485,0,U,40046,999,65223,.45919E-3,.5717E-4,0
CANX-4,2014-034C,2026-07-23T05:21:20.124576,14.81321100,.0011389,98.3072,80.8513,253.9790,106.0167,0,U,40055,999,64986,.10082E-3,.73E-5,0
CANX-5,2014-034D,2026-07-23T11:47:32.685792,14.81338876,.0011405,98.3074,81.1750,253.2971,106.6989,0,U,40056,999,64071,.10106E-3,.732E-5,0
UKUBE-1,2014-037F,2026-07-22T00:03:56.437056,15.14023415,.00031348,98.4254,209.9476,76.9955,283.1624,0,U,40074,999,65382,.4640491E-3,.8356E-4,0
BRITE-PL2 (HEWELIUSZ),2014-049B,2026-07-23T17:24:01.816128,14.94707430,.0013547,97.9123,317.0145,354.4816,5.6253,0,U,40119,999,64690,.17545E-3,.1847E-4,0
AEROCUBE 5C,2015-058B,2026-07-23T20:19:23.412000,14.91623225,.0132997,64.7666,148.5283,49.1413,312.1135,0,U,40965,999,37112,.33569E-3,.3831E-4,0
AEROCUBE 7,2015-058C,2026-07-23T19:18:13.032000,14.95980206,.0122671,64.7621,130.1008,47.4667,313.6726,0,U,40966,999,37143,.39978E-3,.5054E-4,0
FOX-1A (AO-85),2015-058D,2026-07-23T07:15:55.096128,14.91129767,.0133071,64.7741,166.7324,42.7370,318.3997,0,U,40967,999,11895,.33669E-3,.3792E-4,0
SINOD-D 1,2015-058E,2026-07-23T20:16:29.995968,14.96158782,.0121759,64.7745,144.0931,38.8855,322.0939,0,U,40968,999,12214,.44923E-3,.5719E-4,0
SNAP-3 ALICE,2015-058G,2026-07-23T19:05:38.409216,15.69320599,.002684,64.7486,336.5005,343.4867,16.5406,0,U,40970,999,12261,.13006E-2,.158878E-2,0
LMRST-SAT,2015-058H,2026-07-23T20:54:21.657600,14.90747210,.0134601,64.7747,161.3741,44.5271,316.6563,0,U,40971,999,11902,.32459E-3,.3625E-4,0
SNAP-3 EDDIE,2015-058J,2026-07-23T18:07:23.124864,15.70902943,.0028099,64.7404,327.0778,345.9806,14.0562,0,U,40972,999,12475,.14882E-2,.195499E-2,0
PROPCUBE 3,2015-058K,2026-07-23T19:34:59.772576,14.94474581,.0126432,64.7681,138.0744,45.7238,315.4164,0,U,40973,999,12027,.3745E-3,.4571E-4,0
BISONSAT,2015-058L,2026-07-23T07:11:00.264768,15.17090256,.0082803,64.7589,56.8012,32.2910,328.3244,0,U,40974,999,12109,.61313E-3,.13145E-3,0
SNAP-3 JIMI,2015-058M,2026-07-23T17:32:15.765792,15.02703071,.0108412,64.7649,104.1151,41.0283,319.8925,0,U,40975,999,11971,.47952E-3,.7118E-4,0
PROPCUBE 1 (FLORA),2015-058N,2026-07-23T09:21:14.382720,14.89362825,.0133113,64.7730,183.0206,46.9669,314.2500,0,U,40976,999,12165,.2881E-3,.3064E-4,0
SINOD-D 3,2015-058P,2026-07-23T20:29:05.048160,14.94234064,.0121717,64.7713,161.3014,43.8304,317.2390,0,U,40977,999,12023,.41535E-3,.4998E-4,0
RAVAN,2016-067B,2026-07-23T05:44:08.623680,15.58180668,.0003416,97.9829,98.0692,182.5920,177.5317,0,U,41849,999,53330,.85193E-3,.64563E-3,0
CELTEE 1,2016-067C,2026-07-23T08:26:34.114272,15.19998381,.0002518,98.0633,73.3853,99.9194,260.2324,0,U,41850,999,53137,.22359E-3,.4738E-4,0
OPTICUBE 04,2016-067D,2026-07-23T03:13:38.517312,15.09795676,.0015524,98.0668,58.2908,1.6575,358.4701,0,U,41851,999,53059,.1251E-3,.1954E-4,0
AEROCUBE 8D,2016-067E,2026-07-23T10:47:02.073984,15.24855276,.0004001,98.0639,77.3820,35.6935,324.4568,0,U,41852,999,53159,.29485E-3,.7246E-4,0
AEROCUBE 8C,2016-067F,2026-07-22T21:04:02.948160,15.25100953,.00037168,98.0510,73.9494,309.3108,50.7798,0,U,41853,999,53150,.30896067E-3,.7654E-4,0
CORVUS BC2,2017-042X,2026-07-23T09:31:06.380832,15.06490552,.0012617,97.4099,4.3505,354.6231,5.4859,0,U,42846,999,49251,.21181E-3,.3073E-4,0
CORVUS BC1,2017-042Y,2026-07-23T09:17:37.040064,15.06656762,.0010836,97.4135,5.1792,330.8605,29.2016,0,U,42847,999,49254,.21627E-3,.3152E-4,0
MAKERSAT 0,2017-073D,2026-07-23T02:07:11.196192,15.33243210,.01057257,97.4573,86.9049,144.3345,216.5022,0,U,43016,999,47196,.62103038E-3,.23835E-3,0
SIRION PATHFINDER-2,2018-099B,2026-07-23T02:51:54.511488,15.14823429,.00092966,97.4236,252.3249,164.7022,195.4493,0,U,43759,999,41806,.20478784E-3,.3743E-4,0
CORVUS BC4,2018-099K,2026-07-23T13:43:30.946944,15.12750007,.0006971,97.4051,246.4889,225.6264,134.4396,0,U,43767,999,41790,.21961E-3,.3788E-4,0
